#aV2024  7 27  0  0  0.00000000     288 DD+AD WGS84 FIT  NGA
## 2324 518400.00000000   300.00000000 60518 0.0000000000000
+   31     2  3  4  5  6  7  8  9 10 11 12 13 14 15 16 17 18
+         19 20 21 22 23 24 25 26 27 28 29 30 31 32  0  0  0
+          0  0  0  0  0  0  0  0  0  0  0  0  0  0  0  0  0
+          0  0  0  0  0  0  0  0  0  0  0  0  0  0  0  0  0
+          0  0  0  0  0  0  0  0  0  0  0  0  0  0  0  0  0
++         2  2  2  2  2  2  2  2  2  2  2  2  2  2  2  2  2
++         2  2  2  2  2  2  2  2  2  2  2  2  2  2  0  0  0
++         0  0  0  0  0  0  0  0  0  0  0  0  0  0  0  0  0
++         0  0  0  0  0  0  0  0  0  0  0  0  0  0  0  0  0
++         0  0  0  0  0  0  0  0  0  0  0  0  0  0  0  0  0
%c cc cc ccc ccc cccc cccc cccc cccc ccccc ccccc ccccc ccccc
%c cc cc ccc ccc cccc cccc cccc cccc ccccc ccccc ccccc ccccc
%f  0.0000000  0.000000000  0.00000000000  0.000000000000000
%f  0.0000000  0.000000000  0.00000000000  0.000000000000000
%i    0    0    0    0      0      0      0      0         0
%i    0    0    0    0      0      0      0      0         0
/*      NGA, ST. LOUIS,MO.                                  
/*   EPHEMERIS COMPUTED FROM 2 DAYS OF DATA                 
/*   EPOCHA v9 SMOOTHER                                     
/*   G2296 IERS2010 SATIGS SATAPC                           
*  2024  7 27 22 10  0.00000000
P  2 -15498.290428   1069.077197  22042.840869   -390.648675                    
V  2  -7231.805874 -25821.933391  -3610.901635      0.074732                    
P  3 -22156.621759  11520.855410   8705.451895    476.264329                    
V  3   7232.689610  -8901.462371  29739.174955      0.158160                    
P  4 -22982.656748   1114.961744 -13372.521149    412.489808                    
V  4 -15105.072265  -7934.559438  25132.484195      0.076254                    
P  5  17489.237861   2197.289117 -20076.571162   -181.214584                    
V  5 -17406.499363  18012.160640 -13238.713098     -0.012975                    
P  6   4894.619268  26043.557261   -294.664711    135.337270                    
V  6  -1876.834218    795.081789  32449.990442     -0.234623                    
P  7  -7590.276805  19427.279652 -15645.957569    -61.773704                    
V  7  -6587.099802 -20156.346765 -21586.752967      0.068873                    
P  8 -25978.369465  -6004.687403   2535.937993    292.295525                    
V  8  -2389.152885  -3553.836445 -31075.579459      0.155211                    
P  9 -13983.350298  10401.706955 -20144.273257    290.373643                    
V  9 -23888.279353  -8630.006064  12124.425003      0.152576                    
P 10   4531.804913 -19408.080482  17594.728465    -77.509484                    
V 10  17517.348293 -13388.673966 -19829.364949     -0.102844                    
P 11  12223.080932  19432.123509 -13388.128358   -712.240781                    
V 11    450.937896  17124.824384  25157.375369     -0.063087                    
P 12  22827.130104  -7940.708103  10681.186411   -525.728605                    
V 12  -9624.314597  10472.080754  27679.834865     -0.030296                    
P 13  22259.281256  14280.795246  -3810.664323    667.271259                    
V 13  -5037.504925    -98.468394 -31367.243206      0.023446                    
P 14  -8354.759000  20552.305798  14480.820169    458.848676                    
V 14 -15840.195676   9798.207767 -23330.630499      0.088310                    
P 15  26346.912969   3078.143188   2141.711393    185.940962                    
V 15   2665.762537   3983.482948 -30931.149816      0.042892                    
P 16 -15074.880677  -7213.215975 -21069.013574   -224.755441                    
V 16  20592.788604 -15708.457988  -9069.426966      0.105135                    
P 17    964.595401  16280.466708  21353.106294    668.459449                    
V 17 -24451.347625  -9311.004926   8530.302896     -0.084058                    
P 18   7334.501634 -19955.271784 -15767.609932   -640.859638                    
V 18   5276.099835  19483.766301 -22388.281070     -0.036600                    
P 19  10853.954579  17687.054272  16646.786934    516.485657                    
V 19 -19920.066025  -7610.987750  20463.646006      0.053000                    
P 20  10529.737840  11281.823399 -21560.007036    372.303210                    
V 20 -17375.239156  21371.680974   2540.835817     -0.004038                    
P 21 -16661.513664  -5827.300609  20553.147213    106.330139                    
V 21  -6591.910644 -23999.572961 -11377.946674     -0.021146                    
P 22  -1338.367684  18133.356060  19875.492830    -44.631927                    
V 22 -20209.774567  13435.482038 -13625.047272     -0.043850                    
P 23  14960.551681 -20530.938361   7391.441710    283.800501                    
V 23   8426.598005  -4709.511643 -30439.941399      0.088068                    
P 24  16283.503135   1324.546983  20573.688879   -484.713294                    
V 24   7149.869038  26196.365980  -6788.651321     -0.012229                    
P 25  20180.881854 -16967.160462   1337.152450    498.887517                    
V 25    717.531846   3945.220048  31615.780940      0.003033                    
P 26  -4792.350397 -16650.593853 -20194.793477    111.952779                    
V 26  18785.840576 -17318.969120  10269.088575     -0.071930                    
P 27 -22021.258033 -13179.589381  -7934.272706    -32.045965                    
V 27   9778.733755    925.698424 -29361.629140     -0.007414                    
P 28  -4477.758976 -26093.312485   2117.333948   -349.004620                    
V 28   3328.043255   2006.700400  31616.619845     -0.154896                    
P 29  17642.065244  -6472.605255 -18866.401253   -587.322688                    
V 29  21382.736824  10491.335437  16311.981540      0.020496                    
P 30   -317.654035  25416.708001  -7058.805720   -350.355992                    
V 30  -5383.458169  -8383.178817 -29579.790181      0.066355                    
P 31 -10728.168487 -22201.555284  -9562.454927   -226.417013                    
V 31    886.358050 -12297.234378  28588.398763      0.003311                    
P 32  -4099.073907 -16509.318728  20661.338454   -609.725464                    
V 32  24641.653300   7329.539635  10661.936768      0.023168                    
EOF
